GLOBALSTAR M094         
1 39074U 13005C   24146.80859950 -.00000080  00000+0  13297-3 0  9996
2 39074  51.9964 281.5709 0000960 123.9174 236.1784 12.62266260523478
GLOBALSTAR M096         
1 39075U 13005D   24147.45519992 -.00000091  00000+0  72087-4 0  9993
2 39075  52.0088 327.8148 0001185 106.9895 253.1101 12.62266056522801
GLOBALSTAR M078         
1 39076U 13005E   24146.87494549 -.00000003  00000+0  56110-3 0  9990
2 39076  51.9891  54.6187 0001556  52.5822 307.5186 12.62276454521212
GLOBALSTAR M095         
1 39077U 13005F   24146.82143352 -.00000080  00000+0  13436-3 0  9998
2 39077  51.9818  52.1654 0001355  73.3807 286.7208 12.62266526521217
GLOBALSTAR M087         
1 52888U 22064A   24146.84140094 -.00000074  00000+0  10282-3 0  9999
2 52888  51.9761 286.3001 0008689 309.1793  50.8335 13.37574944 94537
